{
  "type": "FeatureCollection",
  "name": "Pedda_harivanam",
  "crs": {
    "type": "name",
    "properties": {
      "name": "urn:ogc:def:crs:OGC:1.3:CRS84"
    }
  },
  "features": [
    {
      "type": "Feature",
      "properties": {
        "id": 3623,
        "objectid_1": 3623,
        "objectid": 3623,
        "village": "Pedda Harivanam",
        "vlcode": "594067",
        "gram_panchayat_name\n": "PEDDA HARIVANAM",
        "gram_panchayat_code\n": " ",
        "block": "Adoni",
        "bkcode": "938",
        "subdistrict\n": "Adoni",
        "sdcode": "5271",
        "sub_district_head_quarter\n": "ADONI",
        "district": "Kurnool",
        "dtcode": "511",
        "district_head_quarter\n": "KURNOOL",
        "state": "AP",
        "stcode": "28",
        "uqcode": " ",
        "country": "India",
        "total_urban_rural\n": "Rural",
        "total_households\n": 1510,
        "total_population_village\n": 7659,
        "avg_household\n": 5.07218543,
        "total_geographical_area\n": 5627,
        "total_male_population_village\n": 3858,
        "total_female_population_village\n": 3801,
        "tapwater_treated_status\n": "Available",
        "tapwater_untreated_status\n": "Not Available",
        "covered_well_status\n": "Not Available",
        "covered_well_function_year\n": " ",
        "covered_well_functioning_summer\n": " ",
        "uncovered_well_status\n": "Not Available",
        "uncovered_well_function_year\n": " ",
        "uncovered_well_function_summer\n": " ",
        "handpump_status\n": "Available",
        "hand_pump_function_year\n": "Available",
        "hand_pump_function_summer\n": "Available",
        "tubewell_borehole_status\n": "Available",
        "tube_wells_borehole_function_year\n": "Available",
        "tube_wells_borehole_function_Summer\n": "Available",
        "spring_status\n": "Not Available",
        "spring_functioning_all_round_year\n": " ",
        "spring_functioning_summer_month\n": " ",
        "river_canal_status\n": "Available",
        "tank_pond_lake_status\n": "Available",
        "others_sta": "Not Available",
        "closed_drainage_status\n": "Not Available",
        "open_drainage_status\n": "Available",
        "village_pin_code_status\n": "Available",
        "forest_area\n": 0,
        "area_under_non_agricultural_use\n": 0,
        "barren_uncultivable_land\n": 177,
        "permanent_pastures_grazing\n": 0,
        "land_under_miscellaneous\n": 0,
        "culturable_waste_land\n": 84,
        "fallows_land_other_than_current\n": 0,
        "current_fallows_area\n": 0,
        "net_area_sown\n": 5366,
        "total_unirrigated_land\n": 4947,
        "area_irrigated_by_source\n": 419,
        "canals_area\n": 419,
        "wells_tube_wells_area\n": 0,
        "tanks_lakes_area\n": 0,
        "waterfall_area\n": 0,
        "other_source_specify_area\n": 0,
        "nearest_town_name\n": "ADONI",
        "nearest_town_distance_from_village\n": 20,
        "Shape_Length\n": 32994.76470836403,
        "Shape_Area\n": 32994.76470836403,
        "shape_area": 58125460.97964355,
        "ds_name": "Administrative Boundary",
        "src_agency": "Survey of India (SOI)",
        "state_name": "Andhra Pradesh",
        "auxiliary_storage_labeling_positionx": 3686443.011629223,
        "auxiliary_storage_labeling_positiony": 3090439.213239368,
        "auxiliary_storage_labeling_lineanchorpercent": null,
        "auxiliary_storage_labeling_lineanchorclipping": null,
        "auxiliary_storage_labeling_lineanchortype": null,
        "auxiliary_storage_labeling_lineanchortextpoint": null,
        "auxiliary_storage_callouts_originx": null,
        "auxiliary_storage_callouts_originy": null,
        "auxiliary_storage_callouts_destinationx": null,
        "auxiliary_storage_callouts_destinationy": null
      },
      "geometry": {
        "type": "MultiPolygon",
        "coordinates": [
          [
            [
              [
                77.08411309054175,
                15.65809936003549
              ],
              [
                77.08531649904752,
                15.657875540027664
              ],
              [
                77.08553577986103,
                15.657563797610228
              ],
              [
                77.08697671914139,
                15.657645312993418
              ],
              [
                77.08771922083751,
                15.656267716468747
              ],
              [
                77.08802646002276,
                15.65577034608227
              ],
              [
                77.08915053067454,
                15.654695092057704
              ],
              [
                77.0901533404645,
                15.653940655965943
              ],
              [
                77.09093221580854,
                15.653407545798073
              ],
              [
                77.09162245044183,
                15.653132044243486
              ],
              [
                77.09217741552821,
                15.65318629602319
              ],
              [
                77.09247128695272,
                15.653028200768285
              ],
              [
                77.09287705099518,
                15.652531250099038
              ],
              [
                77.09327345540548,
                15.652508704134668
              ],
              [
                77.0944161808524,
                15.651736144107549
              ],
              [
                77.09588529771574,
                15.65079200945684
              ],
              [
                77.09692999056597,
                15.650154970951048
              ],
              [
                77.0980258965611,
                15.649734902662294
              ],
              [
                77.09915922634738,
                15.649192766638208
              ],
              [
                77.09967692650362,
                15.648912691177436
              ],
              [
                77.10032984828382,
                15.648492531599242
              ],
              [
                77.10125784956031,
                15.648542369420031
              ],
              [
                77.10164494761646,
                15.648140215413058
              ],
              [
                77.10261507334269,
                15.646622062266275
              ],
              [
                77.10304895262222,
                15.64537048597431
              ],
              [
                77.10315166955844,
                15.644164048762402
              ],
              [
                77.10338030174162,
                15.64284909162211
              ],
              [
                77.1045157796006,
                15.643032228823783
              ],
              [
                77.10493783895468,
                15.64272729048511
              ],
              [
                77.10527364153361,
                15.642352255809882
              ],
              [
                77.10560009594779,
                15.642026942477143
              ],
              [
                77.10629498206322,
                15.641932107048234
              ],
              [
                77.1066213567634,
                15.641823739235564
              ],
              [
                77.1064955208363,
                15.641426014005939
              ],
              [
                77.1065095481775,
                15.64115943662779
              ],
              [
                77.10728369715551,
                15.64028741675847
              ],
              [
                77.10744694794361,
                15.640043424915833
              ],
              [
                77.10748894953777,
                15.639754225611005
              ],
              [
                77.1073708143904,
                15.63948638270884
              ],
              [
                77.10724180708222,
                15.639193885246899
              ],
              [
                77.1069900760367,
                15.638832429557757
              ],
              [
                77.10670091462458,
                15.63863809986124
              ],
              [
                77.10650979665267,
                15.638344360718447
              ],
              [
                77.10624467016548,
                15.637527551648342
              ],
              [
                77.10699951378297,
                15.637169540717547
              ],
              [
                77.10727002770437,
                15.637115347570212
              ],
              [
                77.10818623042331,
                15.63785198225627
              ],
              [
                77.10957825073557,
                15.636998035211812
              ],
              [
                77.11093526859518,
                15.636017618221763
              ],
              [
                77.11159286690686,
                15.63554769724501
              ],
              [
                77.11225969106633,
                15.635055248869023
              ],
              [
                77.11333225878779,
                15.634345869958866
              ],
              [
                77.11398516829165,
                15.633753964909262
              ],
              [
                77.11503439061747,
                15.63296775083756
              ],
              [
                77.11530013966355,
                15.632750877242136
              ],
              [
                77.11561729215875,
                15.632524980537083
              ],
              [
                77.11655449117252,
                15.632290038493379
              ],
              [
                77.11702082740956,
                15.632204226109025
              ],
              [
                77.11918918464882,
                15.631621352387842
              ],
              [
                77.11998657097075,
                15.631381887719208
              ],
              [
                77.12067670853392,
                15.63120113785801
              ],
              [
                77.12138765166532,
                15.631099569325803
              ],
              [
                77.1244700867744,
                15.630260213777374
              ],
              [
                77.13229008629152,
                15.62542021169879
              ],
              [
                77.13213008741853,
                15.62270021438876
              ],
              [
                77.1317200877645,
                15.61903021233994
              ],
              [
                77.13113008617702,
                15.61703021233904
              ],
              [
                77.1297500871643,
                15.615400213038233
              ],
              [
                77.12749008658258,
                15.611930214847888
              ],
              [
                77.12597008773955,
                15.608960213910501
              ],
              [
                77.1251800877314,
                15.606920214215426
              ],
              [
                77.12493008680241,
                15.604050214483943
              ],
              [
                77.12469008692369,
                15.59785021516093
              ],
              [
                77.12463008647329,
                15.596410214308001
              ],
              [
                77.12434008714393,
                15.588350215411335
              ],
              [
                77.12429008723902,
                15.584590215085003
              ],
              [
                77.12477008727137,
                15.581510213804686
              ],
              [
                77.12513008760607,
                15.578320215429931
              ],
              [
                77.1244800870423,
                15.578050214705707
              ],
              [
                77.12151008731382,
                15.577520214512663
              ],
              [
                77.11816008682113,
                15.577560214618009
              ],
              [
                77.11177008724717,
                15.578600214630836
              ],
              [
                77.10827008776779,
                15.578660216268117
              ],
              [
                77.10514008804306,
                15.57876021488796
              ],
              [
                77.10212008908437,
                15.578850215650391
              ],
              [
                77.0977200879427,
                15.580490214427337
              ],
              [
                77.09468008761675,
                15.582300213933976
              ],
              [
                77.09309008840401,
                15.583250215213937
              ],
              [
                77.08945008755063,
                15.586100215294872
              ],
              [
                77.08412008855895,
                15.588910215333387
              ],
              [
                77.07835008819417,
                15.591030215114563
              ],
              [
                77.07313008930234,
                15.593130215142407
              ],
              [
                77.05764008809655,
                15.599980215802614
              ],
              [
                77.05087008938798,
                15.601880212604993
              ],
              [
                77.03267631743009,
                15.60760244517344
              ],
              [
                77.03262150802679,
                15.608819262557406
              ],
              [
                77.03240627248465,
                15.610450392852643
              ],
              [
                77.03165538701583,
                15.610856804306705
              ],
              [
                77.03135223802701,
                15.611114177825995
              ],
              [
                77.03127742487237,
                15.61160674209788
              ],
              [
                77.03140251018321,
                15.613283140283643
              ],
              [
                77.03144872040362,
                15.614128129967447
              ],
              [
                77.03159768892955,
                15.614801515890827
              ],
              [
                77.03173239407717,
                15.615741459206678
              ],
              [
                77.03206273245146,
                15.617390865020576
              ],
              [
                77.03228127385364,
                15.618592892931733
              ],
              [
                77.03248137809274,
                15.619573499475285
              ],
              [
                77.03270004250926,
                15.620640053145065
              ],
              [
                77.03147365523348,
                15.620888069111006
              ],
              [
                77.03109125384015,
                15.62100087077929
              ],
              [
                77.0311696928699,
                15.622636585213193
              ],
              [
                77.03130409197816,
                15.624435106902947
              ],
              [
                77.03145740267247,
                15.625731974973858
              ],
              [
                77.03145456203713,
                15.626739609397216
              ],
              [
                77.03010464329026,
                15.626840679339095
              ],
              [
                77.0300758693251,
                15.628496808360188
              ],
              [
                77.03017336881517,
                15.62935536736904
              ],
              [
                77.03025578818651,
                15.632608741885258
              ],
              [
                77.0303159575885,
                15.633625478604452
              ],
              [
                77.03037793611345,
                15.634185729253534
              ],
              [
                77.03041344251886,
                15.634506681261595
              ],
              [
                77.03068389170845,
                15.634551983430471
              ],
              [
                77.03125275289901,
                15.634638037353746
              ],
              [
                77.03196620449978,
                15.634651878720378
              ],
              [
                77.0340618077196,
                15.634577368792645
              ],
              [
                77.0342271823151,
                15.635931570871474
              ],
              [
                77.03427708677617,
                15.636488461597642
              ],
              [
                77.03430614972588,
                15.636812758722206
              ],
              [
                77.0357653263454,
                15.636976565868522
              ],
              [
                77.03872655663379,
                15.637302539923507
              ],
              [
                77.04065231207281,
                15.637529229544684
              ],
              [
                77.04197189888801,
                15.637791827853475
              ],
              [
                77.04412608147548,
                15.638244448293124
              ],
              [
                77.04596782562187,
                15.638651831034744
              ],
              [
                77.04871880132126,
                15.639425513269796
              ],
              [
                77.05070049085012,
                15.64006776469447
              ],
              [
                77.05277532910628,
                15.64069656461732
              ],
              [
                77.05645899517609,
                15.641700849571814
              ],
              [
                77.05824014910722,
                15.642157759891406
              ],
              [
                77.06183977427906,
                15.64335627320861
              ],
              [
                77.06296357121539,
                15.643686434328343
              ],
              [
                77.0651644115156,
                15.64444623994152
              ],
              [
                77.06778959514175,
                15.645273777325075
              ],
              [
                77.07020027697321,
                15.646169119196436
              ],
              [
                77.07170638114718,
                15.646666485082415
              ],
              [
                77.07223327852641,
                15.646991943427329
              ],
              [
                77.07332432901224,
                15.647846245307685
              ],
              [
                77.07465763599618,
                15.649391954639114
              ],
              [
                77.07625216004809,
                15.65095568565271
              ],
              [
                77.0770214359713,
                15.651796376516744
              ],
              [
                77.07800510595635,
                15.653003040359506
              ],
              [
                77.07883034731842,
                15.654001772347948
              ],
              [
                77.07976273876581,
                15.655194894020509
              ],
              [
                77.08133863802104,
                15.656957474729003
              ],
              [
                77.0817162395932,
                15.657477165593
              ],
              [
                77.08288000792115,
                15.65882214738565
              ],
              [
                77.08317094558417,
                15.659158380940172
              ],
              [
                77.08332967706257,
                15.65883116669982
              ],
              [
                77.08364218703618,
                15.658186941568605
              ],
              [
                77.08411309054175,
                15.65809936003549
              ]
            ]
          ]
        ]
      }
    }
  ]
}